start=new Date('2023-02-15T00:00:00.000Z').valueOf();
sats=[{"EPHEMERIS_TYPE":"0","INCLINATION":"53.0539","TIME_SYSTEM":"UTC","PERIAPSIS":"546.396","COUNTRY_CODE":"US","MEAN_ELEMENT_THEORY":"SGP4","DECAY_DATE":null,"OBJECT_TYPE":"PAYLOAD","MEAN_MOTION_DDOT":"0.0000000000000","PERIOD":"95.592","CLASSIFICATION_TYPE":"U","TLE_LINE1":"1 46714U 20073AW  23045.85697282  .00004883  00000-0  34641-3 0  9999","OBJECT_NAME":"STARLINK-1816","CENTER_NAME":"EARTH","REF_FRAME":"TEME","ECCENTRICITY":"0.00011640","ARG_OF_PERICENTER":"93.6723","ELEMENT_SET_NO":"999","BSTAR":"0.00034641000000","FILE":"3792084","SITE":"AFETR","RA_OF_ASC_NODE":"224.2510","GP_ID":"225430326","RCS_SIZE":"LARGE","MEAN_MOTION":"15.06403604","LAUNCH_DATE":"2020-10-18","MEAN_MOTION_DOT":"0.00004883","OBJECT_ID":"2020-073AW","EPOCH":"2023-02-14T20:34:02.451648","NORAD_CAT_ID":"46714","TLE_LINE2":"2 46714  53.0539 224.2510 0001164  93.6723 266.4399 15.06403604128499","REV_AT_EPOCH":"12849","SEMIMAJOR_AXIS":"6925.338","MEAN_ANOMALY":"266.4399","APOAPSIS":"548.009"},{"NORAD_CAT_ID":"46715","EPOCH":"2023-02-14T20:28:43.855104","MEAN_MOTION_DOT":"0.00001874","OBJECT_ID":"2020-073AX","APOAPSIS":"548.106","MEAN_ANOMALY":"268.5533","SEMIMAJOR_AXIS":"6925.337","TLE_LINE2":"2 46715  53.0521 224.2729 0001305  91.5606 268.5533 15.06403792128498","REV_AT_EPOCH":"12849","FILE":"3792084","BSTAR":"0.00014465000000","ELEMENT_SET_NO":"999","ARG_OF_PERICENTER":"91.5606","ECCENTRICITY":"0.00013050","LAUNCH_DATE":"2020-10-18","MEAN_MOTION":"15.06403792","RCS_SIZE":"LARGE","GP_ID":"225429086","RA_OF_ASC_NODE":"224.2729","SITE":"AFETR","PERIOD":"95.592","OBJECT_TYPE":"PAYLOAD","MEAN_MOTION_DDOT":"0.0000000000000","DECAY_DATE":null,"MEAN_ELEMENT_THEORY":"SGP4","OBJECT_NAME":"STARLINK-1817","REF_FRAME":"TEME","CENTER_NAME":"EARTH","TLE_LINE1":"1 46715U 20073AX  23045.85328536  .00001874  00000-0  14465-3 0  9992","CLASSIFICATION_TYPE":"U","INCLINATION":"53.0521","EPHEMERIS_TYPE":"0","COUNTRY_CODE":"US","PERIAPSIS":"546.298","TIME_SYSTEM":"UTC"},{"COUNTRY_CODE":"US","PERIAPSIS":"546.439","TIME_SYSTEM":"UTC","INCLINATION":"53.0515","EPHEMERIS_TYPE":"0","CENTER_NAME":"EARTH","OBJECT_NAME":"STARLINK-1818","REF_FRAME":"TEME","TLE_LINE1":"1 46716U 20073AY  23045.80214935  .00001919  00000-0  14766-3 0  9999","CLASSIFICATION_TYPE":"U","PERIOD":"95.592","OBJECT_TYPE":"PAYLOAD","MEAN_MOTION_DDOT":"0.0000000000000","DECAY_DATE":null,"MEAN_ELEMENT_THEORY":"SGP4","LAUNCH_DATE":"2020-10-18","MEAN_MOTION":"15.06398337","GP_ID":"225429334","RCS_SIZE":"LARGE","SITE":"AFETR","RA_OF_ASC_NODE":"239.5010","FILE":"3792084","BSTAR":"0.00014766000000","ELEMENT_SET_NO":"999","ARG_OF_PERICENTER":"88.9707","ECCENTRICITY":"0.00011260","APOAPSIS":"547.998","MEAN_ANOMALY":"271.1411","SEMIMAJOR_AXIS":"6925.354","REV_AT_EPOCH":"12827","TLE_LINE2":"2 46716  53.0515 239.5010 0001126  88.9707 271.1411 15.06398337128276","NORAD_CAT_ID":"46716","EPOCH":"2023-02-14T19:15:05.703840","MEAN_MOTION_DOT":"0.00001919","OBJECT_ID":"2020-073AY"},{"RA_OF_ASC_NODE":"225.3802","SITE":"AFETR","LAUNCH_DATE":"2020-10-18","GP_ID":"225430086","RCS_SIZE":"LARGE","MEAN_MOTION":"15.06403239","ARG_OF_PERICENTER":"91.9020","ELEMENT_SET_NO":"999","ECCENTRICITY":"0.00015750","FILE":"3792084","BSTAR":"0.00032370000000","TLE_LINE2":"2 46717  53.0504 225.3802 0001575  91.9020 268.2149 15.06403239128450","REV_AT_EPOCH":"12845","MEAN_ANOMALY":"268.2149","APOAPSIS":"548.294","SEMIMAJOR_AXIS":"6925.339","MEAN_MOTION_DOT":"0.00004544","OBJECT_ID":"2020-073AZ","NORAD_CAT_ID":"46717","EPOCH":"2023-02-14T14:33:07.746624","PERIAPSIS":"546.113","COUNTRY_CODE":"US","TIME_SYSTEM":"UTC","EPHEMERIS_TYPE":"0","INCLINATION":"53.0504","CLASSIFICATION_TYPE":"U","TLE_LINE1":"1 46717U 20073AZ  23045.60633966  .00004544  00000-0  32370-3 0  9995","REF_FRAME":"TEME","OBJECT_NAME":"STARLINK-1820","CENTER_NAME":"EARTH","DECAY_DATE":null,"MEAN_ELEMENT_THEORY":"SGP4","PERIOD":"95.592","MEAN_MOTION_DDOT":"0.0000000000000","OBJECT_TYPE":"PAYLOAD"},{"MEAN_MOTION_DDOT":"0.0000000000000","OBJECT_TYPE":"PAYLOAD","PERIOD":"95.592","MEAN_ELEMENT_THEORY":"SGP4","DECAY_DATE":null,"OBJECT_NAME":"STARLINK-1821","CENTER_NAME":"EARTH","REF_FRAME":"TEME","TLE_LINE1":"1 46718U 20073BA  23045.58004746  .00000406  00000-0  46123-4 0  9996","CLASSIFICATION_TYPE":"U","INCLINATION":"53.0505","EPHEMERIS_TYPE":"0","TIME_SYSTEM":"UTC","COUNTRY_CODE":"US","PERIAPSIS":"546.384","EPOCH":"2023-02-14T13:55:16.100544","NORAD_CAT_ID":"46718","OBJECT_ID":"2020-073BA","MEAN_MOTION_DOT":"0.00000406","SEMIMAJOR_AXIS":"6925.357","APOAPSIS":"548.060","MEAN_ANOMALY":"266.5360","TLE_LINE2":"2 46718  53.0505 240.4899 0001210  93.5767 266.5360 15.06397134128247","REV_AT_EPOCH":"12824","BSTAR":"0.00004612300000","FILE":"3791349","ECCENTRICITY":"0.00012100","ELEMENT_SET_NO":"999","ARG_OF_PERICENTER":"93.5767","MEAN_MOTION":"15.06397134","RCS_SIZE":"LARGE","GP_ID":"225389474","LAUNCH_DATE":"2020-10-18","RA_OF_ASC_NODE":"240.4899","SITE":"AFETR"},{"MEAN_ELEMENT_THEORY":"SGP4","DECAY_DATE":null,"OBJECT_TYPE":"PAYLOAD","MEAN_MOTION_DDOT":"0.0000000000000","PERIOD":"95.593","TLE_LINE1":"1 46719U 20073BB  23045.69663846  .00001011  00000-0  86724-4 0  9995","CLASSIFICATION_TYPE":"U","REF_FRAME":"TEME","OBJECT_NAME":"STARLINK-1822","CENTER_NAME":"EARTH","EPHEMERIS_TYPE":"0","INCLINATION":"53.0529","TIME_SYSTEM":"UTC","COUNTRY_CODE":"US","PERIAPSIS":"546.709","OBJECT_ID":"2020-073BB","MEAN_MOTION_DOT":"0.00001011","NORAD_CAT_ID":"46719","EPOCH":"2023-02-14T16:43:09.562944","TLE_LINE2":"2 46719  53.0529 204.9760 0000762  98.7098 261.3977 15.06392507128753","REV_AT_EPOCH":"12875","SEMIMAJOR_AXIS":"6925.372","APOAPSIS":"547.764","MEAN_ANOMALY":"261.3977","ECCENTRICITY":"0.00007620","ELEMENT_SET_NO":"999","ARG_OF_PERICENTER":"98.7098","BSTAR":"0.00008672400000","FILE":"3792084","RA_OF_ASC_NODE":"204.9760","SITE":"AFETR","MEAN_MOTION":"15.06392507","RCS_SIZE":"LARGE","GP_ID":"225429584","LAUNCH_DATE":"2020-10-18"},{"TIME_SYSTEM":"UTC","PERIAPSIS":"546.334","COUNTRY_CODE":"US","EPHEMERIS_TYPE":"0","INCLINATION":"53.0511","CLASSIFICATION_TYPE":"U","TLE_LINE1":"1 46722U 20073BE  23045.80582414  .00015842  00000-0  10792-2 0  9990","OBJECT_NAME":"STARLINK-1825","CENTER_NAME":"EARTH","REF_FRAME":"TEME","MEAN_ELEMENT_THEORY":"SGP4","DECAY_DATE":null,"OBJECT_TYPE":"PAYLOAD","MEAN_MOTION_DDOT":"0.0000000000000","PERIOD":"95.590","RA_OF_ASC_NODE":"239.4857","SITE":"AFETR","RCS_SIZE":"LARGE","GP_ID":"225429834","MEAN_MOTION":"15.06428974","LAUNCH_DATE":"2020-10-18","ECCENTRICITY":"0.00011420","ARG_OF_PERICENTER":"77.2277","ELEMENT_SET_NO":"999","BSTAR":"0.00107920000000","FILE":"3792084","TLE_LINE2":"2 46722  53.0511 239.4857 0001142  77.2277 282.8839 15.06428974128272","REV_AT_EPOCH":"12827","SEMIMAJOR_AXIS":"6925.260","MEAN_ANOMALY":"282.8839","APOAPSIS":"547.916","OBJECT_ID":"2020-073BE","MEAN_MOTION_DOT":"0.00015842","EPOCH":"2023-02-14T19:20:23.205696","NORAD_CAT_ID":"46722"},{"LAUNCH_DATE":"2020-10-18","RCS_SIZE":"LARGE","GP_ID":"225388724","MEAN_MOTION":"15.06391447","RA_OF_ASC_NODE":"201.1576","SITE":"AFETR","FILE":"3791349","BSTAR":"0.00006806400000","ARG_OF_PERICENTER":"80.5398","ELEMENT_SET_NO":"999","ECCENTRICITY":"0.00009460","MEAN_ANOMALY":"279.5698","APOAPSIS":"547.895","SEMIMAJOR_AXIS":"6925.375","REV_AT_EPOCH":"12878","TLE_LINE2":"2 46723  53.0497 201.1576 0000946  80.5398 279.5698 15.06391447128788","EPOCH":"2023-02-14T10:24:19.001664","NORAD_CAT_ID":"46723","OBJECT_ID":"2020-073BF","MEAN_MOTION_DOT":"0.00000732","PERIAPSIS":"546.585","COUNTRY_CODE":"US","TIME_SYSTEM":"UTC","INCLINATION":"53.0497","EPHEMERIS_TYPE":"0","CENTER_NAME":"EARTH","OBJECT_NAME":"STARLINK-1826","REF_FRAME":"TEME","CLASSIFICATION_TYPE":"U","TLE_LINE1":"1 46723U 20073BF  23045.43355326  .00000732  00000-0  68064-4 0  9999","PERIOD":"95.593","MEAN_MOTION_DDOT":"0.0000000000000","OBJECT_TYPE":"PAYLOAD","DECAY_DATE":null,"MEAN_ELEMENT_THEORY":"SGP4"},{"LAUNCH_DATE":"2020-10-18","MEAN_MOTION":"15.06397075","GP_ID":"225430327","RCS_SIZE":"LARGE","SITE":"AFETR","RA_OF_ASC_NODE":"239.3529","FILE":"3792084","BSTAR":"0.00013283000000","ELEMENT_SET_NO":"999","ARG_OF_PERICENTER":"78.3511","ECCENTRICITY":"0.00010960","APOAPSIS":"547.982","MEAN_ANOMALY":"281.7601","SEMIMAJOR_AXIS":"6925.358","TLE_LINE2":"2 46725  53.0508 239.3529 0001096  78.3511 281.7601 15.06397075128280","REV_AT_EPOCH":"12828","EPOCH":"2023-02-14T20:02:51.851904","NORAD_CAT_ID":"46725","OBJECT_ID":"2020-073BH","MEAN_MOTION_DOT":"0.00001698","COUNTRY_CODE":"US","PERIAPSIS":"546.464","TIME_SYSTEM":"UTC","INCLINATION":"53.0508","EPHEMERIS_TYPE":"0","REF_FRAME":"TEME","OBJECT_NAME":"STARLINK-1828","CENTER_NAME":"EARTH","TLE_LINE1":"1 46725U 20073BH  23045.83532236  .00001698  00000-0  13283-3 0  9996","CLASSIFICATION_TYPE":"U","PERIOD":"95.592","OBJECT_TYPE":"PAYLOAD","MEAN_MOTION_DDOT":"0.0000000000000","DECAY_DATE":null,"MEAN_ELEMENT_THEORY":"SGP4"},{"SITE":"AFETR","RA_OF_ASC_NODE":"224.5311","MEAN_MOTION":"15.06400962","GP_ID":"225429087","RCS_SIZE":"LARGE","LAUNCH_DATE":"2020-10-18","ECCENTRICITY":"0.00012470","ELEMENT_SET_NO":"999","ARG_OF_PERICENTER":"90.4499","BSTAR":"0.00011682000000","FILE":"3792084","TLE_LINE2":"2 46726  53.0518 224.5311 0001247  90.4499 269.6633 15.06400962128487","REV_AT_EPOCH":"12848","SEMIMAJOR_AXIS":"6925.346","APOAPSIS":"548.074","MEAN_ANOMALY":"269.6633","MEAN_MOTION_DOT":"0.00001459","OBJECT_ID":"2020-073BJ","EPOCH":"2023-02-14T19:02:26.929536","NORAD_CAT_ID":"46726","TIME_SYSTEM":"UTC","COUNTRY_CODE":"US","PERIAPSIS":"546.347","EPHEMERIS_TYPE":"0","INCLINATION":"53.0518","TLE_LINE1":"1 46726U 20073BJ  23045.79336724  .00001459  00000-0  11682-3 0  9992","CLASSIFICATION_TYPE":"U","REF_FRAME":"TEME","OBJECT_NAME":"STARLINK-1829","CENTER_NAME":"EARTH","MEAN_ELEMENT_THEORY":"SGP4","DECAY_DATE":null,"MEAN_MOTION_DDOT":"0.0000000000000","OBJECT_TYPE":"PAYLOAD","PERIOD":"95.592"}];
